OBJECT_NAME,OBJECT_ID,EPOCH,MEAN_MOTION,ECCENTRICITY,INCLINATION,RA_OF_ASC_NODE,ARG_OF_PERICENTER,MEAN_ANOMALY,EPHEMERIS_TYPE,CLASSIFICATION_TYPE,NORAD_CAT_ID,ELEMENT_SET_NO,REV_AT_EPOCH,BSTAR,MEAN_MOTION_DOT,MEAN_MOTION_DDOT
COSMOS 2531,2018-097B,2024-01-20T18:31:19.847136,12.42880202,.0017365,82.5172,48.2445,166.0466,194.1097,0,U,43752,999,23326,.29815E-3,.51E-6,0
COSMOS 2532,2018-097C,2024-01-20T19:10:24.729312,12.42880497,.0018617,82.5117,47.4127,168.7129,191.4372,0,U,43753,999,23326,.18462E-3,.36E-6,0
MINXSS-2,2018-099A,2024-01-20T04:16:57.027648,15.05395955,.0019428,97.5780,85.0944,105.8345,254.5026,0,U,43758,999,28034,.78988E-3,.11324E-3,0
SIRION PATHFINDER-2,2018-099B,2024-01-20T16:57:39.794112,15.00788712,.0016002,97.5447,81.0757,73.3967,286.9013,0,U,43759,999,28022,.51262E-3,.6469E-4,0
AISTECHSAT 2,2018-099L,2024-01-20T14:03:14.990688,15.00735607,.0006201,97.5505,78.8322,107.2594,252.9309,0,U,43768,999,27982,.52822E-3,.6643E-4,0
FOX-1CLIFF (AO-95),2018-099N,2024-01-20T02:33:55.133568,15.02991150,.0015308,97.5712,81.2909,146.8917,213.3270,0,U,43770,999,28015,.70088E-3,.9398E-4,0
RANGE-A,2018-099Q,2024-01-20T14:19:56.878176,15.05788293,.0006562,97.5463,84.9016,65.3625,294.8285,0,U,43772,999,28033,.8934E-3,.12908E-3,0
RANGE-B,2018-099R,2024-01-20T16:25:50.385216,15.00538568,.0018414,97.5299,78.6808,111.7980,248.5206,0,U,43773,999,28015,.47304E-3,.593E-4,0
HIBER-2,2018-099S,2024-01-20T14:42:09.135072,15.06858740,.0011653,97.5662,85.3926,98.7354,261.5194,0,U,43774,999,28036,.88217E-3,.13132E-3,0
MOVE-II,2018-099Y,2024-01-20T16:53:27.302208,15.09761775,.0008687,97.5448,85.6455,123.3447,236.8614,0,U,43780,999,28048,.10809E-2,.17428E-3,0
VESTA-1,2018-099Z,2024-01-20T16:46:40.056672,15.05279360,.0008478,97.5431,81.7163,115.9264,244.2837,0,U,43781,999,28032,.73626E-3,.10482E-3,0
SNUSAT-2,2018-099AA,2024-01-20T02:50:43.074240,15.02412176,.0015797,97.5362,81.2238,88.7378,271.5657,0,U,43782,999,28017,.66572E-3,.8789E-4,0
SNUGLITE,2018-099AC,2024-01-20T02:29:37.906080,15.03287952,.0006072,97.5209,80.6756,98.3124,261.8790,0,U,43784,999,28022,.69369E-3,.9356E-4,0
ITASAT,2018-099AE,2024-01-20T03:15:13.834656,15.01949713,.0019213,97.5311,81.7098,132.0996,228.1866,0,U,43786,999,28018,.52181E-3,.6799E-4,0
KAZSCISAT-1,2018-099AF,2024-01-20T16:38:16.067328,15.08865511,.0008442,97.5303,83.3765,100.8257,259.3922,0,U,43787,999,28050,.10433E-2,.16409E-3,0
EAGLET-I,2018-099AJ,2024-01-20T03:15:11.889792,15.01070259,.0018512,97.5484,82.1431,125.3760,234.9197,0,U,43790,999,27990,.39611E-3,.5026E-4,0
ESEO,2018-099AL,2024-01-20T03:54:49.889952,14.98716058,.0013814,97.5403,79.8116,113.9032,246.3640,0,U,43792,999,27987,.25872E-3,.3061E-4,0
CSIM-FD,2018-099AM,2024-01-20T18:07:31.186848,15.09853267,.0015498,97.5514,87.2868,102.4789,257.8175,0,U,43793,999,28034,.90957E-3,.14715E-3,0
ORBWEAVER 1,2018-099AP,2024-01-20T18:20:17.579904,15.21636760,.0002884,97.5502,92.1163,48.3478,311.8004,0,U,43795,999,28091,.1826E-2,.41381E-3,0
THEA,2018-099AQ,2024-01-20T04:09:29.789280,15.04714334,.0015701,97.5696,85.1011,104.9987,255.2978,0,U,43796,999,27927,.69178E-3,.9714E-4,0
ASTROCAST 0.1,2018-099AS,2024-01-20T04:11:03.538464,15.07339423,.001236,97.5592,85.6573,84.2967,275.9670,0,U,43798,999,28040,.94746E-3,.14298E-3,0
JY1SAT (JO-97),2018-099AX,2024-01-20T02:32:01.531392,15.04209361,.0012013,97.5456,82.2946,91.4596,268.8006,0,U,43803,999,28026,.72842E-3,.10084E-3,0
SUOMI-100,2018-099AY,2024-01-20T16:38:34.805760,15.03702152,.0018868,97.5526,82.6720,88.3879,271.9508,0,U,43804,999,28034,.64802E-3,.8862E-4,0
AL-FARABI 2,2018-099AZ,2024-01-20T02:41:30.768288,15.06647374,.0012889,97.5344,83.4175,84.3838,275.8859,0,U,43805,999,28036,.92983E-3,.13772E-3,0
CENTAURI-1,2018-099BD,2024-01-20T03:56:15.064800,15.01696593,.0020118,97.5569,81.6262,110.8030,249.5352,0,U,43809,999,27990,.48526E-3,.6278E-4,0
GLOBAL-2,2018-099BG,2024-01-20T14:16:43.305024,15.00620497,.0010631,97.5399,80.6464,115.8718,244.3603,0,U,43812,999,27981,.35793E-3,.4471E-4,0
BRIO,2018-099BH,2024-01-20T03:30:30.599136,15.09329047,.0008492,97.5883,89.7077,88.2532,271.9669,0,U,43813,999,28016,.1151E-2,.18345E-3,0
SPACEBEE-5,2018-099BM,2024-01-20T03:49:25.025088,15.56228638,.0004509,97.5600,101.7270,327.6038,32.4938,0,U,43817,999,28088,.39918E-2,.289806E-2,0
SEAHAWK-1,2018-099BQ,2024-01-20T03:31:17.179104,15.02574267,.0015345,97.5298,80.8273,103.6588,256.6347,0,U,43820,999,27963,.58069E-3,.769E-4,0
SAUDISAT 5A,2018-102A,2024-01-20T18:16:22.558080,15.14005888,.0012244,97.4298,90.0260,340.2953,19.7804,0,U,43831,999,28212,.30961E-3,.5567E-4,0
SAUDISAT 5B,2018-102C,2024-01-20T19:03:09.437472,15.14583153,.0013134,97.4341,91.6547,344.3773,15.7052,0,U,43833,999,28220,.36761E-3,.6734E-4,0
