COSMOS 2531             
1 43752U 18097B   24020.77175749  .00000051  00000+0  29815-3 0  9994
2 43752  82.5172  48.2445 0017365 166.0466 194.1097 12.42880202233262
COSMOS 2532             
1 43753U 18097C   24020.79889733  .00000036  00000+0  18462-3 0  9991
2 43753  82.5117  47.4127 0018617 168.7129 191.4372 12.42880497233268
MINXSS-2                
1 43758U 18099A   24020.17843782  .00011324  00000+0  78988-3 0  9995
2 43758  97.5780  85.0944 0019428 105.8345 254.5026 15.05395955280343
SIRION PATHFINDER-2     
1 43759U 18099B   24020.70671058  .00006469  00000+0  51262-3 0  9990
2 43759  97.5447  81.0757 0016002  73.3967 286.9013 15.00788712280220
AISTECHSAT 2            
1 43768U 18099L   24020.58559017  .00006643  00000+0  52822-3 0  9993
2 43768  97.5505  78.8322 0006201 107.2594 252.9309 15.00735607279820
FOX-1CLIFF (AO-95)      
1 43770U 18099N   24020.10688812  .00009398  00000+0  70088-3 0  9994
2 43770  97.5712  81.2909 0015308 146.8917 213.3270 15.02991150280153
RANGE-A                 
1 43772U 18099Q   24020.59718609  .00012908  00000+0  89340-3 0  9999
2 43772  97.5463  84.9016 0006562  65.3625 294.8285 15.05788293280335
RANGE-B                 
1 43773U 18099R   24020.68461094  .00005930  00000+0  47304-3 0  9994
2 43773  97.5299  78.6808 0018414 111.7980 248.5206 15.00538568280153
HIBER-2                 
1 43774U 18099S   24020.61260573  .00013132  00000+0  88217-3 0  9998
2 43774  97.5662  85.3926 0011653  98.7354 261.5194 15.06858740280368
MOVE-II                 
1 43780U 18099Y   24020.70378822  .00017428  00000+0  10809-2 0  9995
2 43780  97.5448  85.6455 0008687 123.3447 236.8614 15.09761775280487
VESTA-1                 
1 43781U 18099Z   24020.69907473  .00010482  00000+0  73626-3 0  9994
2 43781  97.5431  81.7163 0008478 115.9264 244.2837 15.05279360280328
SNUSAT-2                
1 43782U 18099AA  24020.11855410  .00008789  00000+0  66572-3 0  9994
2 43782  97.5362  81.2238 0015797  88.7378 271.5657 15.02412176280172
SNUGLITE                
1 43784U 18099AC  24020.10391095  .00009356  00000+0  69369-3 0  9997
2 43784  97.5209  80.6756 0006072  98.3124 261.8790 15.03287952280223
ITASAT                  
1 43786U 18099AE  24020.13557679  .00006799  00000+0  52181-3 0  9996
2 43786  97.5311  81.7098 0019213 132.0996 228.1866 15.01949713280187
KAZSCISAT-1             
1 43787U 18099AF  24020.69324152  .00016409  00000+0  10433-2 0  9998
2 43787  97.5303  83.3765 0008442 100.8257 259.3922 15.08865511280508
EAGLET-I                
1 43790U 18099AJ  24020.13555428  .00005026  00000+0  39611-3 0  9996
2 43790  97.5484  82.1431 0018512 125.3760 234.9197 15.01070259279904
ESEO                    
1 43792U 18099AL  24020.16307743  .00003061  00000+0  25872-3 0  9997
2 43792  97.5403  79.8116 0013814 113.9032 246.3640 14.98716058279870
CSIM-FD                 
1 43793U 18099AM  24020.75522207  .00014715  00000+0  90957-3 0  9991
2 43793  97.5514  87.2868 0015498 102.4789 257.8175 15.09853267280344
ORBWEAVER 1             
1 43795U 18099AP  24020.76409236  .00041381  00000+0  18260-2 0  9995
2 43795  97.5502  92.1163 0002884  48.3478 311.8004 15.21636760280910
THEA                    
1 43796U 18099AQ  24020.17326145  .00009714  00000+0  69178-3 0  9997
2 43796  97.5696  85.1011 0015701 104.9987 255.2978 15.04714334279278
ASTROCAST 0.1           
1 43798U 18099AS  24020.17434651  .00014298  00000+0  94746-3 0  9993
2 43798  97.5592  85.6573 0012360  84.2967 275.9670 15.07339423280409
JY1SAT (JO-97)          
1 43803U 18099AX  24020.10557328  .00010084  00000+0  72842-3 0  9992
2 43803  97.5456  82.2946 0012013  91.4596 268.8006 15.04209361280267
SUOMI-100               
1 43804U 18099AY  24020.69345840  .00008862  00000+0  64802-3 0  9999
2 43804  97.5526  82.6720 0018868  88.3879 271.9508 15.03702152280349
AL-FARABI 2             
1 43805U 18099AZ  24020.11216167  .00013772  00000+0  92983-3 0  9993
2 43805  97.5344  83.4175 0012889  84.3838 275.8859 15.06647374280360
CENTAURI-1              
1 43809U 18099BD  24020.16406325  .00006278  00000+0  48526-3 0  9996
2 43809  97.5569  81.6262 0020118 110.8030 249.5352 15.01696593279909
GLOBAL-2                
1 43812U 18099BG  24020.59494566  .00004471  00000+0  35793-3 0  9996
2 43812  97.5399  80.6464 0010631 115.8718 244.3603 15.00620497279815
BRIO                    
1 43813U 18099BH  24020.14618749  .00018345  00000+0  11510-2 0  9994
2 43813  97.5883  89.7077 0008492  88.2532 271.9669 15.09329047280167
SPACEBEE-5              
1 43817U 18099BM  24020.15931742  .00289806  00000+0  39918-2 0  9994
2 43817  97.5600 101.7270 0004509 327.6038  32.4938 15.56228638280888
SEAHAWK-1               
1 43820U 18099BQ  24020.14672661  .00007690  00000+0  58069-3 0  9997
2 43820  97.5298  80.8273 0015345 103.6588 256.6347 15.02574267279635
SAUDISAT 5A             
1 43831U 18102A   24020.76137220  .00005567  00000+0  30961-3 0  9991
2 43831  97.4298  90.0260 0012244 340.2953  19.7804 15.14005888282120
SAUDISAT 5B             
1 43833U 18102C   24020.79385923  .00006734  00000+0  36761-3 0  9992
2 43833  97.4341  91.6547 0013134 344.3773  15.7052 15.14583153282206
